SBIRS GEO-1 (USA 230)   
1 37481U 11019A   21216.11599759 -.00000004  00000-0  00000+0 0  9997
2 37481   1.8057   5.0906 0002265 126.8562 288.9000  1.00272266 37510
TELSTAR 14R             
1 37602U 11021A   21215.52852838 -.00000276  00000-0  00000-0 0  9991
2 37602   0.0265 330.7386 0001630 114.0794 354.7547  1.00272807 37988
GSAT-8                  
1 37605U 11022A   21216.15952198  .00000088  00000-0  00000+0 0  9994
2 37605   0.0165 101.4610 0002781 161.7780 162.1929  1.00272439 37419
ST-2                    
1 37606U 11022B   21215.87750720 -.00000208  00000-0  00000-0 0  9996
2 37606   0.0166  97.7509 0001394  74.8916 183.9266  1.00272643 37444
CHINASAT 10 (ZX 10)     
1 37677U 11026A   21215.88195623 -.00000349  00000-0  00000-0 0  9990
2 37677   0.0534 249.0844 0004659 276.6375 214.9636  1.00273622 37166
SJ-11-03                
1 37730U 11030A   21216.06995549  .00000024  00000-0  13743-4 0  9992
2 37730  97.8353 242.6267 0007291 249.1870 110.8557 14.60883318537325
TIANLIAN 1-02           
1 37737U 11032A   21215.82219963 -.00000015  00000-0  00000-0 0  9992
2 37737   2.4213  74.6543 0019347  92.5553 252.3414  1.00272158 36885
GLOBALSTAR M083         
1 37739U 11033A   21216.00432892 -.00000080  00000-0  13462-3 0  9995
2 37739  51.9874  27.7788 0000836  67.2766 105.3789 12.62263875468749
GLOBALSTAR M088         
1 37740U 11033B   21215.54694152 -.00000096  00000-0  43421-4 0  9990
2 37740  51.9738 295.8563 0000656  89.0854 283.7015 12.62264786463895
GLOBALSTAR M091         
1 37741U 11033C   21216.11852306 -.00000076  00000-0  15357-3 0  9996
2 37741  51.9979 255.1402 0000255  96.7974 293.6247 12.62267637464994
GLOBALSTAR M085         
1 37742U 11033D   21215.94393942 -.00000086  00000-0  96382-4 0  9992
2 37742  51.9840 207.9582 0000122  49.0790 328.5857 12.62266482465719
GLOBALSTAR M081         
1 37743U 11033E   21215.76648780 -.00000090  00000-0  76049-4 0  9999
2 37743  51.9932 210.4136 0000349  63.1000 107.7817 12.62265251465343
GLOBALSTAR M089         
1 37744U 11033F   21215.64788266 -.00000108  00000-0 -23370-4 0  9991
2 37744  51.9919 165.2682 0000249 103.8916  67.7550 12.62266537466178
GSAT-12                 
1 37746U 11034A   21216.08729846  .00000128  00000-0  00000+0 0  9992
2 37746   0.5841  96.4560 0010738   2.4779 293.3075  1.00272008 37127
SES-3                   
1 37748U 11035A   21216.05477056 -.00000098  00000-0  00000+0 0  9992
2 37748   0.0619 284.5622 0002804 203.8028 101.1830  1.00271805 36864
KAZSAT-2                
1 37749U 11035B   21215.87724549 -.00000194  00000-0  00000-0 0  9992
2 37749   0.0223 153.1197 0001614  41.9338 159.9121  1.00272207 35553
NAVSTAR 66 (USA 232)    
1 37753U 11036A   21214.41394473 -.00000064  00000-0  00000-0 0  9992
2 37753  56.4429  41.1494 0108885  49.5442 313.3026  2.00563695 73585
BEIDOU 9                
1 37763U 11038A   21215.88313167 -.00000033  00000-0  00000-0 0  9994
2 37763  54.4692 181.6017 0084374 227.0405 314.8853  1.00255740 36812
SJ-11-02                
1 37765U 11039A   21216.09390237  .00000032  00000-0  16543-4 0  9995
2 37765  98.4815  53.5589 0012205  48.5929 311.6316 14.61661117534105
ASTRA 1N                
1 37775U 11041A   21216.15090451  .00000123  00000-0  00000+0 0  9998
2 37775   0.0407   7.3856 0003946  76.6424 302.3978  1.00271616 36579
BSAT-3C (JCSAT-110R)    
1 37776U 11041B   21215.88186899 -.00000347  00000-0  00000-0 0  9990
2 37776   0.0180  83.8906 0000078 233.9492  62.2513  1.00271358 32643
PAKSAT-1R               
1 37779U 11042A   21216.09285541  .00000157  00000-0  00000+0 0  9999
2 37779   0.0416 243.3069 0004288 185.1985 315.8017  1.00274288 36457
HAIYANG-2A              
1 37781U 11043A   21216.02054602 -.00000013  00000-0  30761-4 0  9992
2 37781  99.3153 222.4215 0000919  42.2501 317.8722 13.78721229501894
NIGERIASAT-2            
1 37789U 11044B   21216.08397788 -.00000001  00000-0  85668-5 0  9996
2 37789  97.8416 250.4184 0010093 328.5131  31.5470 14.62171851531501
NIGERIASAT-X            
1 37790U 11044C   21216.13959429  .00000012  00000-0  11870-4 0  9994
2 37790  97.9420 268.3067 0012666 160.3397 199.8304 14.58637368531016
RASAT                   
1 37791U 11044D   21216.09718417  .00000045  00000-0  17420-4 0  9993
2 37791  98.1049 308.9535 0023014  52.4967 307.8323 14.64844543532656
APRIZESAT 5             
1 37792U 11044E   21216.08539691  .00000057  00000-0  16736-4 0  9990
2 37792  98.3711  76.3374 0056880 295.4395  64.0934 14.75505943536332
APRIZESAT 6             
1 37793U 11044F   21215.86632215  .00000053  00000-0  17142-4 0  9990
2 37793  98.4279  51.6611 0046420 341.3000  65.7375 14.72557423535126
CHINASAT 1A (ZX 1A)     
1 37804U 11047A   21215.85298097 -.00000334  00000-0  00000-0 0  9995
2 37804   0.0265 157.6332 0000665 114.6795 117.2611  1.00273406  9522
SES-2                   
1 37809U 11049A   21215.55545473 -.00000192  00000-0  00000-0 0  9994
2 37809   0.0562 275.3033 0002605 218.8194 291.1772  1.00272234 36123
ARABSAT-5C              
1 37810U 11049B   21216.07928383  .00000127  00000-0  00000+0 0  9995
2 37810   0.0551  14.6122 0006322 140.9657 205.7966  1.00271636 36081
EUTELSAT 7 WEST A       
1 37816U 11051A   21215.78669461 -.00000056  00000-0  00000-0 0  9993
2 37816   0.0700  42.5358 0004360 106.1583  79.7826  1.00272210 36067
TACSAT 4                
1 37818U 11052A   21215.53666275 -.00000534  00000-0 -54210-3 0  9996
2 37818  63.0351 230.5368 4639877 232.3515 335.2661  6.02768637216751
QUETZSAT 1              
1 37826U 11054A   21215.84461927 -.00000238  00000-0  00000-0 0  9993
2 37826   0.0104  21.7483 0002708 122.8490  35.0963  1.00272939 32061
INTELSAT 18 (IS-18)     
1 37834U 11056A   21215.75232366  .00000056  00000-0  00000-0 0  9994
2 37834   0.0157  44.1637 0001627  88.9799 270.2242  1.00270783 35972
EUTELSAT 16A            
1 37836U 11057A   21215.86311326  .00000107  00000-0  00000-0 0  9990
2 37836   0.0650  10.8596 0005000 119.3268 149.1601  1.00270957 28131
MEGHA-TROPIQUES         
1 37838U 11058A   21215.82510028  .00000285  00000-0  12363-4 0  9995
2 37838  19.9792  43.7851 0009664  42.2380 317.8768 14.09608193506237
JUGNU                   
1 37839U 11058B   21215.56310444  .00000313  00000-0  24689-4 0  9993
2 37839  19.9619 303.4936 0018749 252.0424 137.8528 14.12720179507137
SRMSAT                  
1 37841U 11058D   21215.80780781  .00000280  00000-0  87366-5 0  9993
2 37841  19.9738  14.8654 0011892  93.8477 293.3121 14.10699962506345
VIASAT-1                
1 37843U 11059A   21216.16924424 -.00000020  00000-0  00000+0 0  9997
2 37843   0.0248  87.7696 0002546  54.1943 116.7945  1.00269374 36449
GSAT0101 (GALILEO-PFM)  
1 37846U 11060A   21214.14848731 -.00000069  00000-0  00000+0 0  9997
2 37846  56.8628  30.0333 0002740  51.6853 308.3726  1.70475426 60908
GSAT0102 (GALILEO-FM2)  
1 37847U 11060B   21214.07680646 -.00000069  00000-0  00000-0 0  9990
2 37847  56.8631  30.0346 0002149   1.9764   0.4135  1.70475664 60783
SUOMI NPP               
1 37849U 11061A   21216.08015091  .00000002  00000-0  21810-4 0  9994
2 37849  98.7380 154.1215 0001301 103.2926 267.2377 14.19538682506164
M-CUBED & EXP-1 PRIME   
1 37855U 11061F   21215.73493184  .00002100  00000-0  10732-3 0  9996
2 37855 101.7115 163.6624 0165759 290.0688  68.2751 15.07971788533306
COSMOS 2476 [GLONASS-M] 
1 37867U 11064A   21215.27941921 -.00000030  00000-0  00000+0 0  9992
2 37867  64.5783 133.2086 0021168 239.3920 329.9119  2.13101864 75906
COSMOS 2477 [GLONASS-M] 
1 37868U 11064B   21215.39814476 -.00000030  00000-0  00000+0 0  9990
2 37868  64.5867 133.2647 0018564 240.2293 238.4567  2.13101785 75861
COSMOS 2475 [GLONASS-M] 
1 37869U 11064C   21216.00460991 -.00000029  00000-0  00000+0 0  9997
2 37869  64.5933 133.2479 0022751 259.2242 282.4634  2.13102143 75881
YAOGAN 12               
1 37875U 11066B   21216.23076865  .00001182  00000-0  52185-4 0  9990
2 37875  97.3517 290.3222 0010228 114.1073 277.2981 15.23644471541850
CHUANGXIN 1-03 (CX-1-03)
1 37930U 11068A   21216.10471263 -.00000019  00000-0  97949-5 0  9998
2 37930  98.6671 207.2014 0013895 288.3362  71.6312 14.29810596508890
SHIYAN 4 (SY-4)         
1 37931U 11068B   21216.12300204  .00000009  00000-0  20792-4 0  9996
2 37931  98.6713 207.5124 0022658 320.2161  39.7362 14.29873443506576
ASIASAT 7               
1 37933U 11069A   21216.22184988 -.00000330  00000-0  00000+0 0  9992
2 37933   0.0193 126.0267 0001526 347.4838  24.8606  1.00272801 35639
YAOGAN 13               
1 37941U 11072A   21216.19024281  .00001008  00000-0  51465-4 0  9998
2 37941  97.5914 158.5515 0003385  73.0052  37.8697 15.19037029536615
BEIDOU 10               
1 37948U 11073A   21215.66619019 -.00000144  00000-0  00000-0 0  9992
2 37948  50.8821 293.0621 0077543 215.5880 139.5196  1.00282813 35563
LUCH 5A                 
1 37951U 11074B   21216.09527477 -.00000048  00000-0  00000+0 0  9993
2 37951   4.2310 104.2975 0005278   4.1392  45.6315  1.00271776 35368
SSOT                    
1 38011U 11076E   21216.05185877  .00000159  00000-0  26476-4 0  9995
2 38011  97.8288 291.0239 0001527  88.7002 271.4392 14.81999741521024
PLEIADES 1A             
1 38012U 11076F   21216.02966858 -.00000001  00000-0  95952-5 0  9992
2 38012  98.1988 290.6609 0001138  86.7770 273.3558 14.58554729512808
NIGCOMSAT 1R            
1 38014U 11077A   21215.86843465  .00000148  00000-0  00000-0 0  9990
2 38014   0.0187  97.2066 0001908   5.4538 205.1198  1.00270786 35125
ZIYUAN 1-02C (ZY 1-02C) 
1 38038U 11079A   21216.10615514  .00000050  00000-0  33108-4 0  9999
2 38038  98.6352 276.4007 0008321 121.5355 238.6646 14.35304728503964
GLOBALSTAR M084         
1 38040U 11080A   21215.78506742 -.00000100  00000-0  21546-4 0  9999
2 38040  52.0022  31.3964 0000977  94.8888 278.8314 12.62265031444263
